NORAD_CAT_ID,OBJECT_NAME,OBJECT_TYPE,EPOCH,MEAN_MOTION,ECCENTRICITY,INCLINATION,RA_OF_ASC_NODE,ARG_OF_PERICENTER,MEAN_ANOMALY,BSTAR,MEAN_MOTION_DOT,MEAN_MOTION_DDOT,TLE_LINE0,TLE_LINE1,TLE_LINE2,SEMIMAJOR_AXIS,PERIOD,APOGEE,PERIGEE,DECAYED
52473.0,STARLINK-3879,PAYLOAD,2022-06-12 22:00:00,15.73217006,0.0001849,53.2174,80.6683,34.1044,161.1648,-5.9177e-05,-8.924e-05,0.0,0 STARLINK-3879,1 52473U 22049Y   22163.91667824 -.00008924  00000-0 -59177-4 0  9993,2 52473  53.2174  80.6683 0001849  34.1044 161.1648 15.73217006  6076,6727.847,91.532,350.956,348.468,0.0
52473.0,STARLINK-3879,PAYLOAD,2022-06-13 14:00:01,15.732092499999998,0.0001654,53.2172,77.3685,29.2312,343.9576,0.00026239,0.00036379,0.0,0 STARLINK-3879,1 52473U 22049Y   22164.58334491  .00036379  00000-0  26239-3 0  9993,2 52473  53.2172  77.3685 0001654  29.2312 343.9576 15.73209250  6180,6727.869000000002,91.533,350.847,348.621,0.0
52473.0,STARLINK-3879,PAYLOAD,2022-06-13 22:00:00,15.73253137,0.0001763,53.2175,75.7201,32.3275,69.8267,-0.00059538,-0.00083547,0.0,0 STARLINK-3879,1 52473U 22049Y   22164.91667824 -.00083547  00000-0 -59538-3 0  9998,2 52473  53.2175  75.7201 0001763  32.3275  69.8267 15.73253137  1306,6727.744000000002,91.53,350.795,348.423,0.0
52473.0,STARLINK-3879,PAYLOAD,2022-06-14 06:00:00,15.73185208,0.0001883,53.2173,74.0718,28.0862,163.0268,0.00010595,0.00014265,0.0,0 STARLINK-3879,1 52473U 22049Y   22165.25001157  .00014265  00000-0  10595-3 0  9996,2 52473  53.2173  74.0718 0001883  28.0862 163.0268 15.73185208  6289,6727.937,91.534,351.069,348.535,0.0
52473.0,STARLINK-3879,PAYLOAD,2022-06-14 14:00:01,15.73120949,0.0001751999999999,53.2175,72.4205,33.7335,246.2949,0.00060354,0.00084654,0.0,0 STARLINK-3879,1 52473U 22049Y   22165.58334491  .00084654  00000-0  60354-3 0  9999,2 52473  53.2175  72.4205 0001752  33.7335 246.2949 15.73120949  6334,6728.121,91.538,351.164,348.807,0.0
52473.0,STARLINK-3879,PAYLOAD,2022-06-14 22:00:00,15.73216493,0.0001766,53.2173,70.7724,32.0234,336.8671,-0.00071415,-0.00099743,0.0,0 STARLINK-3879,1 52473U 22049Y   22165.91667824 -.00099743  00000-0 -71415-3 0  9992,2 52473  53.2173  70.7724 0001766  32.0234 336.8671 15.73216493  1304,6727.848000000001,91.532,350.901,348.525,0.0
52473.0,STARLINK-3879,PAYLOAD,2022-06-15 06:00:00,15.73145018,0.0001836,53.2167,69.1239,25.6967,72.1048,0.0004845,0.00067768,0.0,0 STARLINK-3879,1 52473U 22049Y   22166.25001157  .00067768  00000-0  48450-3 0  9994,2 52473  53.2167  69.1239 0001836  25.6967  72.1048 15.73145018  6441,6728.052,91.536,351.152,348.682,0.0
52473.0,STARLINK-3879,PAYLOAD,2022-06-15 14:00:01,15.7316362,0.0001546,53.2168,67.4724,29.8237,156.8765,0.00068526,0.00096513,0.0,0 STARLINK-3879,1 52473U 22049Y   22166.58334491  .00096513  00000-0  68526-3 0  9996,2 52473  53.2168  67.4724 0001546  29.8237 156.8765 15.73163620  1301,6727.999,91.535,350.904,348.824,0.0
52473.0,STARLINK-3879,PAYLOAD,2022-06-15 22:00:00,15.73253934,0.0001734,53.2171,65.8243,33.4212,242.2011,-0.00055375,-0.00077803,0.0,0 STARLINK-3879,1 52473U 22049Y   22166.91667824 -.00077803  00000-0 -55375-3 0  9993,2 52473  53.2171  65.8243 0001734  33.4212 242.2011 15.73253934  6549,6727.741,91.53,350.773,348.44,0.0
52473.0,STARLINK-3879,PAYLOAD,2022-06-16 02:00:01,15.731975199999995,0.0001859,53.2172,65.0003,30.8662,109.2754,0.00048674,0.00068242,0.0,0 STARLINK-3879,1 52473U 22049Y   22167.08334491  .00068242  00000-0  48674-3 0  9992,2 52473  53.2172  65.0003 0001859  30.8662 109.2754 15.73197520  1307,6727.901999999999,91.533,351.01800000000014,348.517,0.0
52473.0,STARLINK-3879,PAYLOAD,2022-06-19 14:00:01,15.72990797,0.0001881,53.2168,47.6732,39.7672,134.1446,-0.0040812,-0.00533744,0.0,0 STARLINK-3879,1 52473U 22049Y   22170.58334491 -.00533744  00000-0 -40812-2 0  9992,2 52473  53.2168  47.6732 0001881  39.7672 134.1446 15.72990797  1302,6728.4919999999975,91.545,351.622,349.091,0.0
52473.0,STARLINK-3879,PAYLOAD,2022-06-19 19:21:50,15.73022327,0.0001995,53.2202,46.5532,45.6113,314.5662,0.0,-6.19e-06,0.0,0 STARLINK-3879,1 52473U 22049Y   22170.80683862 -.00000619  00000-0  00000+0 0  9997,2 52473  53.2202  46.5532 0001995  45.6113 314.5662 15.73022327  7169,6728.401999999999,91.544,351.6090000000001,348.9240000000001,0.0
52473.0,STARLINK-3879,PAYLOAD,2022-06-19 20:00:01,15.7280182,0.0002023,53.2173,46.4364,27.4337,122.87,-0.0084652,-0.01051563,0.0,0 STARLINK-3879,1 52473U 22049Y   22170.83334491 -.01051563  00000-0 -84652-2 0  9995,2 52473  53.2173  46.4364 0002023  27.4337 122.8700 15.72801820  7162,6729.031,91.556,352.25699999999995,349.534,0.0
52473.0,STARLINK-3879,PAYLOAD,2022-06-20 06:00:00,15.71855941,0.0001341999999999,53.2173,44.377,36.83,313.3128,-0.0088635,-0.01056429,0.0,0 STARLINK-3879,1 52473U 22049Y   22171.25001157 -.01056429  00000-0 -88635-2 0  9993,2 52473  53.2173  44.3770 0001342  36.8300 313.3128 15.71855941  7227,6731.73,91.611,354.49800000000016,352.691,0.0
52473.0,STARLINK-3879,PAYLOAD,2022-06-20 14:00:01,15.71094092,0.0001771,53.2174,42.7295,27.7589,49.2316,-0.0091264,-0.0105357,0.0,0 STARLINK-3879,1 52473U 22049Y   22171.58334491 -.01053570  00000-0 -91264-2 0  9995,2 52473  53.2174  42.7295 0001771  27.7589  49.2316 15.71094092  1305,6733.906,91.656,356.963,354.57800000000015,0.0
52473.0,STARLINK-3879,PAYLOAD,2022-06-20 22:00:00,15.70334668,0.0002132,53.2174,41.0877,26.6238,136.2981,-0.0094139,-0.01052696,0.0,0 STARLINK-3879,1 52473U 22049Y   22171.91667824 -.01052696  00000-0 -94139-2 0  9993,2 52473  53.2174  41.0877 0002132  26.6238 136.2981 15.70334668  7333,6736.0769999999975,91.7,359.37800000000016,356.506,0.0
52473.0,STARLINK-3879,PAYLOAD,2022-06-21 14:00:01,15.68815048,0.0001849,53.2174,37.8035,23.6658,308.3855,-0.01002,-0.01051472,0.0,0 STARLINK-3879,1 52473U 22049Y   22172.58334491 -.01051472  00000-0 -10020-1 0  9995,2 52473  53.2174  37.8035 0001849  23.6658 308.3855 15.68815048  7435,6740.426,91.789,363.537,361.045,0.0
52473.0,STARLINK-3879,PAYLOAD,2022-06-21 22:00:00,15.68057766,0.0002123,53.2172,36.1674,20.4927,34.7512,-0.010369,-0.01054306,0.0,0 STARLINK-3879,1 52473U 22049Y   22172.91667824 -.01054306  00000-0 -10369-1 0  9996,2 52473  53.2172  36.1674 0002123  20.4927  34.7512 15.68057766  1309,6742.596,91.833,365.892,363.03,0.0
52473.0,STARLINK-3879,PAYLOAD,2022-06-22 14:00:01,15.6653734,0.000178,53.2175,32.8941,36.1195,182.778,-0.010997,-0.01050822,0.0,0 STARLINK-3879,1 52473U 22049Y   22173.58334491 -.01050822  00000-0 -10997-1 0  9997,2 52473  53.2175  32.8941 0001780  36.1195 182.7780 15.66537340  1301,6746.958000000001,91.922,370.024,367.622,0.0
52473.0,STARLINK-3879,PAYLOAD,2022-06-22 16:00:00,15.66348746,0.0001625,53.2177,32.4862,31.4628,297.6338,-0.011106,-0.01052831,0.0,0 STARLINK-3879,1 52473U 22049Y   22173.66667824 -.01052831  00000-0 -11106-1 0  9990,2 52473  53.2177  32.4862 0001625  31.4628 297.6338 15.66348746  7602,6747.5,91.934,370.461,368.268,0.0
52473.0,STARLINK-3879,PAYLOAD,2022-06-22 22:00:00,15.65779169,0.0001844,53.2176,31.2635,29.4979,269.855,-0.011372,-0.01053446,0.0,0 STARLINK-3879,1 52473U 22049Y   22173.91667824 -.01053446  00000-0 -11372-1 0  9996,2 52473  53.2176  31.2635 0001844  29.4979 269.8550 15.65779169  1309,6749.136,91.967,372.245,369.756,0.0
52473.0,STARLINK-3879,PAYLOAD,2022-06-23 14:00:01,15.64257323,0.0001652,53.2175,28.0015,34.6786,62.8523,-0.012017,-0.01047694,0.0,0 STARLINK-3879,1 52473U 22049Y   22174.58334491 -.01047694  00000-0 -12017-1 0  9996,2 52473  53.2175  28.0015 0001652  34.6786  62.8523 15.64257323  7753,6753.513000000001,92.056,376.49300000000005,374.262,0.0
52473.0,STARLINK-3879,PAYLOAD,2022-06-23 22:00:00,15.63498852,0.0001962,53.2173,26.3763,32.3938,142.8544,-0.012403,-0.01049139,0.0,0 STARLINK-3879,1 52473U 22049Y   22174.91667824 -.01049139  00000-0 -12403-1 0  9997,2 52473  53.2173  26.3763 0001962  32.3938 142.8544 15.63498852  1300,6755.696,92.101,378.887,376.236,0.0
52473.0,STARLINK-3879,PAYLOAD,2022-06-24 06:00:02,15.6274166,0.0001406999999999,53.2173,24.7499,51.7746,200.3452,-0.012837,-0.01069568,0.0,0 STARLINK-3879,1 52473U 22049Y   22175.25002315 -.01069568  00000-0 -12837-1 0  9992,2 52473  53.2173  24.7499 0001407  51.7746 200.3452 15.62741660  7855,6757.879,92.146,380.694,378.793,0.0
52473.0,STARLINK-3879,PAYLOAD,2022-06-24 14:00:01,15.61979241,0.0001512,53.2175,23.1253,37.5112,290.4383,-0.013146,-0.01063618,0.0,0 STARLINK-3879,1 52473U 22049Y   22175.58334491 -.01063618  00000-0 -13146-1 0  9995,2 52473  53.2175  23.1253 0001512  37.5112 290.4383 15.61979241  1308,6760.0769999999975,92.191,382.965,380.92,0.0
52473.0,STARLINK-3879,PAYLOAD,2022-06-24 22:00:01,15.61222016,0.0001703,53.2175,21.5058,30.6869,12.3066,-0.013597,-0.01067743,0.0,0 STARLINK-3879,1 52473U 22049Y   22175.91668981 -.01067743  00000-0 -13597-1 0  9999,2 52473  53.2175  21.5058 0001703  30.6869  12.3066 15.61222016  1308,6762.263000000001,92.235,385.28,382.976,0.0
52473.0,STARLINK-3879,PAYLOAD,2022-06-25 06:00:00,15.60461306,0.0001612,53.2174,19.8847,37.7024,79.2959,-0.013972,-0.01065483,0.0,0 STARLINK-3879,1 52473U 22049Y   22176.25001157 -.01065483  00000-0 -13972-1 0  9999,2 52473  53.2174  19.8847 0001612  37.7024  79.2959 15.60461306  8017,6764.4609999999975,92.28,387.416,385.235,0.0
52473.0,STARLINK-3879,PAYLOAD,2022-06-25 14:00:01,15.5970049,0.0001720999999999,53.2177,18.266,42.0784,148.0758,-0.014337,-0.0106209,0.0,0 STARLINK-3879,1 52473U 22049Y   22176.58334491 -.01062090  00000-0 -14337-1 0  9992,2 52473  53.2177  18.2660 0001721  42.0784 148.0758 15.59700490  1304,6766.66,92.325,389.69,387.361,0.0
52473.0,STARLINK-3879,PAYLOAD,2022-06-25 22:00:00,15.58942094,0.0001668,53.2177,16.6518,41.3913,221.0045,-0.014794,-0.01064327,0.0,0 STARLINK-3879,1 52473U 22049Y   22176.91667824 -.01064327  00000-0 -14794-1 0  9990,2 52473  53.2177  16.6518 0001668  41.3913 221.0045 15.58942094  1302,6768.855,92.37,391.849,389.591,0.0
